{
  "type": "FeatureCollection",
  "features": [
    {
      "type": "Feature",
      "properties": {
        "norad_id": 66400,
        "name": "STARLINK-35667",
        "group": "last-30-days",
        "lat": 49.82871324547414,
        "lon": 6.034714788446622,
        "alt_km": 410.85080265637134,
        "timestamp": "2025-12-04T10:51:48.875015+00:00",
        "meta_object_name": "STARLINK-35667",
        "meta_object_id": "2025-257W",
        "meta_epoch": "2025-12-04T04:21:31.026240",
        "meta_mean_motion": 15.493611,
        "meta_eccentricity": 0.0001368,
        "meta_inclination": 53.1595,
        "meta_ra_of_asc_node": 304.6966,
        "meta_arg_of_pericenter": 89.1057,
        "meta_mean_anomaly": 271.0109,
        "meta_ephemeris_type": 0,
        "meta_classification_type": "U",
        "meta_norad_cat_id": 66400,
        "meta_element_set_no": 999,
        "meta_rev_at_epoch": 505,
        "meta_bstar": 0.001873,
        "meta_mean_motion_dot": 0.00105326,
        "meta_mean_motion_ddot": 0,
        "tle_line1": "1 66400U 25257W   25338.18160910  .00105326  00000+0  18730-2 0  9991",
        "tle_line2": "2 66400  53.1595 304.6966 0001368  89.1057 271.0109 15.49361100  5058"
      },
      "geometry": {
        "type": "Point",
        "coordinates": [
          6.034714788446622,
          49.82871324547414
        ]
      }
    },
    {
      "type": "Feature",
      "properties": {
        "norad_id": 66401,
        "name": "STARLINK-35668",
        "group": "last-30-days",
        "lat": 50.514880758394156,
        "lon": 8.899338394937883,
        "alt_km": 410.67676180766466,
        "timestamp": "2025-12-04T10:51:48.875025+00:00",
        "meta_object_name": "STARLINK-35668",
        "meta_object_id": "2025-257X",
        "meta_epoch": "2025-12-04T04:21:01.384128",
        "meta_mean_motion": 15.49388322,
        "meta_eccentricity": 0.0001213,
        "meta_inclination": 53.1595,
        "meta_ra_of_asc_node": 304.6947,
        "meta_arg_of_pericenter": 91.8385,
        "meta_mean_anomaly": 268.2763,
        "meta_ephemeris_type": 0,
        "meta_classification_type": "U",
        "meta_norad_cat_id": 66401,
        "meta_element_set_no": 999,
        "meta_rev_at_epoch": 505,
        "meta_bstar": 0.0030799,
        "meta_mean_motion_dot": 0.00175225,
        "meta_mean_motion_ddot": 0,
        "tle_line1": "1 66401U 25257X   25338.18126602  .00175225  00000+0  30799-2 0  9996",
        "tle_line2": "2 66401  53.1595 304.6947 0001213  91.8385 268.2763 15.49388322  5050"
      },
      "geometry": {
        "type": "Point",
        "coordinates": [
          8.899338394937883,
          50.514880758394156
        ]
      }
    },
    {
      "type": "Feature",
      "properties": {
        "norad_id": 66402,
        "name": "STARLINK-35644",
        "group": "last-30-days",
        "lat": 49.09497976557032,
        "lon": 3.3288989122588375,
        "alt_km": 410.9894899675228,
        "timestamp": "2025-12-04T10:51:48.875038+00:00",
        "meta_object_name": "STARLINK-35644",
        "meta_object_id": "2025-257Y",
        "meta_epoch": "2025-12-04T04:22:00.682176",
        "meta_mean_motion": 15.49368137,
        "meta_eccentricity": 0.0001233,
        "meta_inclination": 53.1595,
        "meta_ra_of_asc_node": 304.6995,
        "meta_arg_of_pericenter": 85.6255,
        "meta_mean_anomaly": 274.4895,
        "meta_ephemeris_type": 0,
        "meta_classification_type": "U",
        "meta_norad_cat_id": 66402,
        "meta_element_set_no": 999,
        "meta_rev_at_epoch": 505,
        "meta_bstar": 0.0021681,
        "meta_mean_motion_dot": 0.00122294,
        "meta_mean_motion_ddot": 0,
        "tle_line1": "1 66402U 25257Y   25338.18195234  .00122294  00000+0  21681-2 0  9992",
        "tle_line2": "2 66402  53.1595 304.6995 0001233  85.6255 274.4895 15.49368137  5050"
      },
      "geometry": {
        "type": "Point",
        "coordinates": [
          3.3288989122588375,
          49.09497976557032
        ]
      }
    },
    {
      "type": "Feature",
      "properties": {
        "norad_id": 66403,
        "name": "STARLINK-35602",
        "group": "last-30-days",
        "lat": 51.11404216176412,
        "lon": 11.769501007192643,
        "alt_km": 410.5736343214012,
        "timestamp": "2025-12-04T10:51:48.875048+00:00",
        "meta_object_name": "STARLINK-35602",
        "meta_object_id": "2025-257Z",
        "meta_epoch": "2025-12-04T04:20:31.482816",
        "meta_mean_motion": 15.4938864,
        "meta_eccentricity": 0.0001474,
        "meta_inclination": 53.1593,
        "meta_ra_of_asc_node": 304.6923,
        "meta_arg_of_pericenter": 95.5534,
        "meta_mean_anomaly": 264.5643,
        "meta_ephemeris_type": 0,
        "meta_classification_type": "U",
        "meta_norad_cat_id": 66403,
        "meta_element_set_no": 999,
        "meta_rev_at_epoch": 505,
        "meta_bstar": 0.0014465,
        "meta_mean_motion_dot": 0.00081067,
        "meta_mean_motion_ddot": 0,
        "tle_line1": "1 66403U 25257Z   25338.18091994  .00081067  00000+0  14465-2 0  9995",
        "tle_line2": "2 66403  53.1593 304.6923 0001474  95.5534 264.5643 15.49388640  5059"
      },
      "geometry": {
        "type": "Point",
        "coordinates": [
          11.769501007192643,
          51.11404216176412
        ]
      }
    },
    {
      "type": "Feature",
      "properties": {
        "norad_id": 66404,
        "name": "STARLINK-35691",
        "group": "last-30-days",
        "lat": 51.62949879427727,
        "lon": 14.638792783999264,
        "alt_km": 410.7133345537595,
        "timestamp": "2025-12-04T10:51:48.875058+00:00",
        "meta_object_name": "STARLINK-35691",
        "meta_object_id": "2025-257AA",
        "meta_epoch": "2025-12-04T04:20:01.971168",
        "meta_mean_motion": 15.49346255,
        "meta_eccentricity": 0.0001327,
        "meta_inclination": 53.1594,
        "meta_ra_of_asc_node": 304.6895,
        "meta_arg_of_pericenter": 94.7004,
        "meta_mean_anomaly": 265.4157,
        "meta_ephemeris_type": 0,
        "meta_classification_type": "U",
        "meta_norad_cat_id": 66404,
        "meta_element_set_no": 999,
        "meta_rev_at_epoch": 505,
        "meta_bstar": 0.0013802,
        "meta_mean_motion_dot": 0.00077175,
        "meta_mean_motion_ddot": 0,
        "tle_line1": "1 66404U 25257AA  25338.18057837  .00077175  00000+0  13802-2 0  9993",
        "tle_line2": "2 66404  53.1594 304.6895 0001327  94.7004 265.4157 15.49346255  5055"
      },
      "geometry": {
        "type": "Point",
        "coordinates": [
          14.638792783999264,
          51.62949879427727
        ]
      }
    },
    {
      "type": "Feature",
      "properties": {
        "norad_id": 66405,
        "name": "STARLINK-35683",
        "group": "last-30-days",
        "lat": 52.09247027501924,
        "lon": 17.70976368042092,
        "alt_km": 410.5828145516225,
        "timestamp": "2025-12-04T10:51:48.875070+00:00",
        "meta_object_name": "STARLINK-35683",
        "meta_object_id": "2025-257AB",
        "meta_epoch": "2025-12-04T04:19:32.297088",
        "meta_mean_motion": 15.49371617,
        "meta_eccentricity": 0.0001221,
        "meta_inclination": 53.1595,
        "meta_ra_of_asc_node": 304.6867,
        "meta_arg_of_pericenter": 96.689,
        "meta_mean_anomaly": 263.4258,
        "meta_ephemeris_type": 0,
        "meta_classification_type": "U",
        "meta_norad_cat_id": 66405,
        "meta_element_set_no": 999,
        "meta_rev_at_epoch": 498,
        "meta_bstar": 0.002114,
        "meta_mean_motion_dot": 0.00119197,
        "meta_mean_motion_ddot": 0,
        "tle_line1": "1 66405U 25257AB  25338.18023492  .00119197  00000+0  21140-2 0  9999",
        "tle_line2": "2 66405  53.1595 304.6867 0001221  96.6890 263.4258 15.49371617  4984"
      },
      "geometry": {
        "type": "Point",
        "coordinates": [
          17.70976368042092,
          52.09247027501924
        ]
      }
    },
    {
      "type": "Feature",
      "properties": {
        "norad_id": 66406,
        "name": "STARLINK-34840",
        "group": "last-30-days",
        "lat": 52.98053622667434,
        "lon": 27.22661147476376,
        "alt_km": 410.20483746759965,
        "timestamp": "2025-12-04T10:51:48.875086+00:00",
        "meta_object_name": "STARLINK-34840",
        "meta_object_id": "2025-257AC",
        "meta_epoch": "2025-12-03T22:06:29.577024",
        "meta_mean_motion": 15.49344183,
        "meta_eccentricity": 0.00013685,
        "meta_inclination": 53.1588,
        "meta_ra_of_asc_node": 305.9143,
        "meta_arg_of_pericenter": 70.7534,
        "meta_mean_anomaly": 289.3623,
        "meta_ephemeris_type": 0,
        "meta_classification_type": "U",
        "meta_norad_cat_id": 66406,
        "meta_element_set_no": 999,
        "meta_rev_at_epoch": 495,
        "meta_bstar": 0.0024309264,
        "meta_mean_motion_dot": 0.00137322,
        "meta_mean_motion_ddot": 0,
        "tle_line1": "1 66406U 25257AC  25337.92117566  .00137322  00000+0  24309-2 0  9997",
        "tle_line2": "2 66406  53.1588 305.9143 0001368  70.7534 289.3623 15.49344183  4956"
      },
      "geometry": {
        "type": "Point",
        "coordinates": [
          27.22661147476376,
          52.98053622667434
        ]
      }
    }
  ]
}